NUSAT-26 (M SOMERVILLE) 
1 52184U 22033AD  26204.30212808  .00029658  00000+0  66162-3 0  9991
2 52184  97.2331 283.1306 0007306 114.5079 245.6932 15.43491558110270
NUSAT-33 (ALBANIA-2)    
1 55047U 23001AQ  26204.29110170  .00009528  00000+0  34737-3 0  9992
2 55047  97.3052 264.5061 0004599 275.6716  84.4000 15.28369187197827
NUSAT-35 (WILLIAMINA)   
1 55048U 23001AR  26204.26550247  .00013933  00000+0  39917-3 0  9993
2 55048  97.1834 256.1194 0009524 339.7986  20.2880 15.35979151197945
NUSAT-39 (TIKVAH ALPER) 
1 56201U 23054Z   26204.25550045  .00029322  00000+0  55474-3 0  9993
2 56201  97.3076 114.3804 0001613 250.5406 109.5671 15.48350527184037
NUSAT-38 (MARIA AGNESI) 
1 56202U 23054AA  26204.23365751  .00036133  00000+0  60845-3 0  9996
2 56202  97.3018 115.1264 0007870 289.4236  70.6166 15.51592423184096
NUSAT-37 (JOAN CLARKE)  
1 56203U 23054AB  26204.24797241  .00053359  00000+0  65204-3 0  9994
2 56203  97.2586 112.0766 0008570 123.4573 236.7505 15.60226837184262
NUSAT-40 (C SHOEMAKER)  
1 56943U 23084M   26204.25027556  .00170542  00000+0  73951-3 0  9996
2 56943  97.4855 353.8486 0003159 173.9761 186.1548 15.84404021174505
NUSAT-41 (C PAYNE-G)    
1 56944U 23084N   26204.29201013  .00011436  00000+0  39543-3 0  9998
2 56944  97.5553 341.5956 0007664 179.7702 180.3543 15.30046579173301
NUSAT-42 (M WONENBURGER)
1 56966U 23084AL  26204.34435662  .00023696  00000+0  47365-3 0  9999
2 56966  97.5753 350.0305 0006893 121.1679 239.0247 15.46779821173669
NUSAT-44 (MARIA MITCHE*)
1 59122U 24043AA  26204.24854221  .00011088  00000+0  38444-3 0  9997
2 59122  97.5487 345.0658 0006705 108.7658 251.4310 15.29971109132786
NUSAT-50 (NANCY ROMAN)  
1 60493U 24149AB  26204.20107669  .00009163  00000+0  31387-3 0  9990
2 60493  97.3774 285.2178 0004775  83.0064 277.1720 15.30421995107630
NUSAT-48 (HENRIETTA LE*)
1 60498U 24149AG  26203.66765862  .00007475  00000+0  26012-3 0  9992
2 60498  97.3904 284.9909 0004904 132.1158 228.0500 15.29976514107565
NUSAT-49 (KLARA DAN VO*)
1 60500U 24149AJ  26204.16938123  .00002702  00000+0  96043-4 0  9994
2 60500  97.3780 285.2115 0002896 148.3571 211.7845 15.29873402107631
NUSAT-45 (UZMASAT-1)    
1 62640U 25009AH  26204.15784208  .00008917  00000+0  31045-3 0  9993
2 62640  97.3583 285.0294 0002435 157.0842 203.0508 15.29908081 84425
NUSAT-52                
1 66692U 25276AC  26204.15927793  .00005166  00000+0  24234-3 0  9993
2 66692  97.4190 277.1144 0001926 228.3498 131.7572 15.20092426 35882
NUSAT-51 (YVONNE BRILL) 
1 66740U 25276CC  26204.15766224  .00006286  00000+0  28961-3 0  9992
2 66740  97.4196 277.2625 0002428 197.4243 162.6910 15.20631627 35891
