{"fetched_at":"2026-07-23T17:55:42.238Z","source":"https://celestrak.org/NORAD/elements/gp.php?NAME=NUSAT&FORMAT=JSON","constellation":"satellogic","records":[{"OBJECT_NAME":"NUSAT-26 (M SOMERVILLE)","OBJECT_ID":"2022-033AD","EPOCH":"2026-07-23T07:15:03.866112","CLASSIFICATION_TYPE":"U","MEAN_MOTION":15.43491558,"ECCENTRICITY":0.00073065,"INCLINATION":97.2331,"RA_OF_ASC_NODE":283.1306,"ARG_OF_PERICENTER":114.5079,"MEAN_ANOMALY":245.6932,"EPHEMERIS_TYPE":0,"NORAD_CAT_ID":52184,"ELEMENT_SET_NO":999,"REV_AT_EPOCH":11027,"BSTAR":0.00066162466,"MEAN_MOTION_DOT":0.00029658,"MEAN_MOTION_DDOT":0},{"OBJECT_NAME":"NUSAT-33 (ALBANIA-2)","OBJECT_ID":"2023-001AQ","EPOCH":"2026-07-23T06:59:11.186880","CLASSIFICATION_TYPE":"U","MEAN_MOTION":15.28369187,"ECCENTRICITY":0.0004599,"INCLINATION":97.3052,"RA_OF_ASC_NODE":264.5061,"ARG_OF_PERICENTER":275.6716,"MEAN_ANOMALY":84.4,"EPHEMERIS_TYPE":0,"NORAD_CAT_ID":55047,"ELEMENT_SET_NO":999,"REV_AT_EPOCH":19782,"BSTAR":0.00034737103,"MEAN_MOTION_DOT":0.00009528,"MEAN_MOTION_DDOT":0},{"OBJECT_NAME":"NUSAT-35 (WILLIAMINA)","OBJECT_ID":"2023-001AR","EPOCH":"2026-07-23T06:22:19.413408","CLASSIFICATION_TYPE":"U","MEAN_MOTION":15.35979151,"ECCENTRICITY":0.00095243,"INCLINATION":97.1834,"RA_OF_ASC_NODE":256.1194,"ARG_OF_PERICENTER":339.7986,"MEAN_ANOMALY":20.288,"EPHEMERIS_TYPE":0,"NORAD_CAT_ID":55048,"ELEMENT_SET_NO":999,"REV_AT_EPOCH":19794,"BSTAR":0.00039916581,"MEAN_MOTION_DOT":0.00013933,"MEAN_MOTION_DDOT":0},{"OBJECT_NAME":"NUSAT-39 (TIKVAH ALPER)","OBJECT_ID":"2023-054Z","EPOCH":"2026-07-23T06:07:55.238880","CLASSIFICATION_TYPE":"U","MEAN_MOTION":15.48350527,"ECCENTRICITY":0.00016134,"INCLINATION":97.3076,"RA_OF_ASC_NODE":114.3804,"ARG_OF_PERICENTER":250.5406,"MEAN_ANOMALY":109.5671,"EPHEMERIS_TYPE":0,"NORAD_CAT_ID":56201,"ELEMENT_SET_NO":999,"REV_AT_EPOCH":18403,"BSTAR":0.00055474338,"MEAN_MOTION_DOT":0.00029322,"MEAN_MOTION_DDOT":0},{"OBJECT_NAME":"NUSAT-38 (MARIA AGNESI)","OBJECT_ID":"2023-054AA","EPOCH":"2026-07-23T05:36:28.008864","CLASSIFICATION_TYPE":"U","MEAN_MOTION":15.51592423,"ECCENTRICITY":0.00078708,"INCLINATION":97.3018,"RA_OF_ASC_NODE":115.1264,"ARG_OF_PERICENTER":289.4236,"MEAN_ANOMALY":70.6166,"EPHEMERIS_TYPE":0,"NORAD_CAT_ID":56202,"ELEMENT_SET_NO":999,"REV_AT_EPOCH":18409,"BSTAR":0.00060844963,"MEAN_MOTION_DOT":0.00036133,"MEAN_MOTION_DDOT":0},{"OBJECT_NAME":"NUSAT-37 (JOAN CLARKE)","OBJECT_ID":"2023-054AB","EPOCH":"2026-07-23T05:57:04.816224","CLASSIFICATION_TYPE":"U","MEAN_MOTION":15.60226837,"ECCENTRICITY":0.00085708,"INCLINATION":97.2586,"RA_OF_ASC_NODE":112.0766,"ARG_OF_PERICENTER":123.4573,"MEAN_ANOMALY":236.7505,"EPHEMERIS_TYPE":0,"NORAD_CAT_ID":56203,"ELEMENT_SET_NO":999,"REV_AT_EPOCH":18426,"BSTAR":0.00065204138,"MEAN_MOTION_DOT":0.00053359,"MEAN_MOTION_DDOT":0},{"OBJECT_NAME":"NUSAT-40 (C SHOEMAKER)","OBJECT_ID":"2023-084M","EPOCH":"2026-07-23T06:00:23.808384","CLASSIFICATION_TYPE":"U","MEAN_MOTION":15.84404021,"ECCENTRICITY":0.00031599,"INCLINATION":97.4855,"RA_OF_ASC_NODE":353.8486,"ARG_OF_PERICENTER":173.9761,"MEAN_ANOMALY":186.1548,"EPHEMERIS_TYPE":0,"NORAD_CAT_ID":56943,"ELEMENT_SET_NO":999,"REV_AT_EPOCH":17450,"BSTAR":0.00073951469,"MEAN_MOTION_DOT":0.00170542,"MEAN_MOTION_DDOT":0},{"OBJECT_NAME":"NUSAT-41 (C PAYNE-G)","OBJECT_ID":"2023-084N","EPOCH":"2026-07-23T07:00:29.675232","CLASSIFICATION_TYPE":"U","MEAN_MOTION":15.30046579,"ECCENTRICITY":0.00076648,"INCLINATION":97.5553,"RA_OF_ASC_NODE":341.5956,"ARG_OF_PERICENTER":179.7702,"MEAN_ANOMALY":180.3543,"EPHEMERIS_TYPE":0,"NORAD_CAT_ID":56944,"ELEMENT_SET_NO":999,"REV_AT_EPOCH":17330,"BSTAR":0.0003954332,"MEAN_MOTION_DOT":0.00011436,"MEAN_MOTION_DDOT":0},{"OBJECT_NAME":"NUSAT-42 (M WONENBURGER)","OBJECT_ID":"2023-084AL","EPOCH":"2026-07-23T08:15:52.411968","CLASSIFICATION_TYPE":"U","MEAN_MOTION":15.46779821,"ECCENTRICITY":0.00068937,"INCLINATION":97.5753,"RA_OF_ASC_NODE":350.0305,"ARG_OF_PERICENTER":121.1679,"MEAN_ANOMALY":239.0247,"EPHEMERIS_TYPE":0,"NORAD_CAT_ID":56966,"ELEMENT_SET_NO":999,"REV_AT_EPOCH":17366,"BSTAR":0.00047364815,"MEAN_MOTION_DOT":0.00023696,"MEAN_MOTION_DDOT":0},{"OBJECT_NAME":"NUSAT-44 (MARIA MITCHELL)","OBJECT_ID":"2024-043AA","EPOCH":"2026-07-23T05:57:54.046944","CLASSIFICATION_TYPE":"U","MEAN_MOTION":15.29971109,"ECCENTRICITY":0.00067057,"INCLINATION":97.5487,"RA_OF_ASC_NODE":345.0658,"ARG_OF_PERICENTER":108.7658,"MEAN_ANOMALY":251.431,"EPHEMERIS_TYPE":0,"NORAD_CAT_ID":59122,"ELEMENT_SET_NO":999,"REV_AT_EPOCH":13278,"BSTAR":0.00038443636,"MEAN_MOTION_DOT":0.00011088,"MEAN_MOTION_DDOT":0},{"OBJECT_NAME":"NUSAT-50 (NANCY ROMAN)","OBJECT_ID":"2024-149AB","EPOCH":"2026-07-23T04:49:33.026016","CLASSIFICATION_TYPE":"U","MEAN_MOTION":15.30421995,"ECCENTRICITY":0.00047758,"INCLINATION":97.3774,"RA_OF_ASC_NODE":285.2178,"ARG_OF_PERICENTER":83.0064,"MEAN_ANOMALY":277.172,"EPHEMERIS_TYPE":0,"NORAD_CAT_ID":60493,"ELEMENT_SET_NO":999,"REV_AT_EPOCH":10763,"BSTAR":0.00031387243,"MEAN_MOTION_DOT":0.00009163,"MEAN_MOTION_DDOT":0},{"OBJECT_NAME":"NUSAT-48 (HENRIETTA LEAVITT)","OBJECT_ID":"2024-149AG","EPOCH":"2026-07-22T16:01:25.704768","CLASSIFICATION_TYPE":"U","MEAN_MOTION":15.29976514,"ECCENTRICITY":0.00049049,"INCLINATION":97.3904,"RA_OF_ASC_NODE":284.9909,"ARG_OF_PERICENTER":132.1158,"MEAN_ANOMALY":228.05,"EPHEMERIS_TYPE":0,"NORAD_CAT_ID":60498,"ELEMENT_SET_NO":999,"REV_AT_EPOCH":10756,"BSTAR":0.00026011572,"MEAN_MOTION_DOT":0.00007475,"MEAN_MOTION_DDOT":0},{"OBJECT_NAME":"NUSAT-49 (KLARA DAN VON NEUMANN)","OBJECT_ID":"2024-149AJ","EPOCH":"2026-07-23T04:03:54.538272","CLASSIFICATION_TYPE":"U","MEAN_MOTION":15.29873402,"ECCENTRICITY":0.00028961,"INCLINATION":97.378,"RA_OF_ASC_NODE":285.2115,"ARG_OF_PERICENTER":148.3571,"MEAN_ANOMALY":211.7845,"EPHEMERIS_TYPE":0,"NORAD_CAT_ID":60500,"ELEMENT_SET_NO":999,"REV_AT_EPOCH":10763,"BSTAR":0.000096043304,"MEAN_MOTION_DOT":0.00002702,"MEAN_MOTION_DDOT":0},{"OBJECT_NAME":"NUSAT-45 (UZMASAT-1)","OBJECT_ID":"2025-009AH","EPOCH":"2026-07-23T03:47:17.555712","CLASSIFICATION_TYPE":"U","MEAN_MOTION":15.29908081,"ECCENTRICITY":0.00024359,"INCLINATION":97.3583,"RA_OF_ASC_NODE":285.0294,"ARG_OF_PERICENTER":157.0842,"MEAN_ANOMALY":203.0508,"EPHEMERIS_TYPE":0,"NORAD_CAT_ID":62640,"ELEMENT_SET_NO":999,"REV_AT_EPOCH":8442,"BSTAR":0.00031045099,"MEAN_MOTION_DOT":0.00008917,"MEAN_MOTION_DDOT":0},{"OBJECT_NAME":"NUSAT-52","OBJECT_ID":"2025-276AC","EPOCH":"2026-07-23T03:49:21.613152","CLASSIFICATION_TYPE":"U","MEAN_MOTION":15.20092426,"ECCENTRICITY":0.00019262,"INCLINATION":97.419,"RA_OF_ASC_NODE":277.1144,"ARG_OF_PERICENTER":228.3498,"MEAN_ANOMALY":131.7572,"EPHEMERIS_TYPE":0,"NORAD_CAT_ID":66692,"ELEMENT_SET_NO":999,"REV_AT_EPOCH":3588,"BSTAR":0.00024233646,"MEAN_MOTION_DOT":0.00005166,"MEAN_MOTION_DDOT":0},{"OBJECT_NAME":"NUSAT-51 (YVONNE BRILL)","OBJECT_ID":"2025-276CC","EPOCH":"2026-07-23T03:47:02.017536","CLASSIFICATION_TYPE":"U","MEAN_MOTION":15.20631627,"ECCENTRICITY":0.00024287,"INCLINATION":97.4196,"RA_OF_ASC_NODE":277.2625,"ARG_OF_PERICENTER":197.4243,"MEAN_ANOMALY":162.691,"EPHEMERIS_TYPE":0,"NORAD_CAT_ID":66740,"ELEMENT_SET_NO":999,"REV_AT_EPOCH":3589,"BSTAR":0.00028961436,"MEAN_MOTION_DOT":0.00006286,"MEAN_MOTION_DDOT":0}]}
